2026-05-16 23:07:13 | INFO | strands_evaluation.instrumentation.agent_plugins | Executing: peek_file({"s3_uri": "s3://sana-kramabench/datagov/kramabench-astronomy-easy-6/files/space-track/58214_quiet.csv", "max_rows": 5})
2026-05-16 23:07:13 | DEBUG | strands_evaluation.instrumentation.agent_plugins | Tool result: {"dataset_id": "kramabench-astronomy-easy-6", "file_path": "files/space-track/58214_quiet.csv", "s3_uri": "s3://sana-kramabench/datagov/kramabench-astronomy-easy-6/files/space-track/58214_quiet.csv", "size_bytes": 5115, "family": "csv", "preview_text": "CCSDS_OMM_VERS,COMMENT,CREATION_DATE,ORIGINATOR,OBJECT_NAME,OBJECT_ID,CENTER_NAME,REF_FRAME,TIME_SYSTEM,MEAN_ELEMENT_THEORY,EPOCH,MEAN_MOTION,ECCENTRICITY,INCLINATION,RA_OF_ASC_NODE,ARG_OF_PERICENTER,MEAN_ANOMALY,EPHEMERIS_TYPE,CLASSIFICATION_TYPE,NORAD_CAT_ID,ELEMENT_SET_NO,REV_AT_EPOCH,BSTAR,MEAN_MOTION_DOT,MEAN_MOTION_DDOT,SEMIMAJOR_AXIS,PERIOD,APOAPSIS,PERIAPSIS,OBJECT_TYPE,RCS_SIZE,COUNTRY_CODE,LAUNCH_DATE,SITE,DECAY_DATE,FILE,GP_ID,TLE_LINE0,TLE_LINE1,TLE_LINE2\n\"2.0\",\"GENERATED VIA SPACE-TRACK.ORG API\",\"2024-05-01T20:24:06\",\"18 SPCS\",\"STARLINK-30805\",\"2023-170J\",\"EARTH\",\"TEME\",\"UTC\",\"SGP4\",\"2024-05-01T10:29:14.898336\",\"15.02550424\",\"0.00017220\",\"43.0038\",\"275.8684\",\"265.8547\",\"94.2099\",\"0\",\"U\",\"58214\",\"999\",\"2840\",\"0.00047506000000\",\"0.00006222\",\"0.0000000000000\",\"6937.172\",\"95.837\",\"560.232\",\"557.843\",\"PAYLOAD\",\"LARGE\",\"US\",\"2023-11-03\",\"AFETR\",\"\",\"4304190\",\"256232108\",\"0 STARLINK-30805\",\"1 58214U 23170J   24122.43697799  .00006222  00000-0  47506-3 0  9995\",\"2 58214  43.0038 275.8684 0001722 265.8547  94.2099 15.02550424 28404\"\n\"2.0\",\"GENERATED VIA SPACE-TRACK.ORG API\",\"2024-05-02T02:46:58\",\"18 SPCS\",\"STARLINK-30805\",\"2023-170J\",\"EARTH\",\"TEME\",\"UTC\",\"SGP4\",\"2024-05-01T16:52:09.772896\",\"15.02544581\",\"0.00014870\",\"43.0034\",\"274.4237\",\"269.1676\",\"90.8996\",\"0\",\"U\",\"58214\",\"999\",\"2844\",\"0.00027920000000\",\"0.00003571\",\"0.0000000000000\",\"6937.190\",\"95.837\",\"560.087\",\"558.024\",\"PAYLOAD\",\"LARGE\",\"US\",\"2023-11-03\",\"AFETR\",\"\",\"4304452\",\"256266706\",\"0 STARLINK-30805\",\"1 58214U 23170J   24122.70289089  .00003571  00000-0  27920-3 0  9996\",\"2 58214  43.0034 274.423...
2026-05-16 23:07:13 | INFO | strands_evaluation.instrumentation.agent_plugins | 
--- Turn 4 (elapsed: 7.0s) ---
2026-05-16 23:07:14 | DEBUG | strands_evaluation.instrumentation.agent_plugins | Model response #4 [stop_reason=tool_use]
2026-05-16 23:07:14 | DEBUG | strands_evaluation.instrumentation.agent_plugins | Model response #4 [role=assistant block=1 tool_use] download({"files": [{"dataset_id": "kramabench-astronomy-easy-6", "file_path": "files/space-track/58214_storm.csv"}, {"dataset_id": "kramabench-astronomy-easy-6", "file_path": "files/space-track/58214_quiet.csv"}]}) [toolUseId=call_BFt7OGXP5GCOR9iqkd7ORLhy]
2026-05-16 23:07:14 | INFO | strands_evaluation.instrumentation.agent_plugins | Executing: download({"files": [{"dataset_id": "kramabench-astronomy-easy-6", "file_path": "files/space-track/58214_storm.csv"}, {"dataset_id": "kramabench-astronomy-easy-6", "file_path": "files/space-track/58214_quiet.csv"}]})
2026-05-16 23:07:26 | DEBUG | strands_evaluation.instrumentation.agent_plugins | Tool result: {"downloaded": [{"local_path": "/home/ec2-user/eval_eqa/exploratory-qa-eval/.sandbox_isolated/task_1591548_1778972826149/kramabench-astronomy-easy-6/files/space-track/58214_storm.csv", "file_path": "files/space-track/58214_storm.csv", "dataset_id": "kramabench-astronomy-easy-6", "s3_uri": "s3://sana-kramabench/datagov/kramabench-astronomy-easy-6/files/space-track/58214_storm.csv", "size": 8029, "status": "downloaded"}, {"local_path": "/home/ec2-user/eval_eqa/exploratory-qa-eval/.sandbox_isolated/task_1591548_1778972826149/kramabench-astronomy-easy-6/files/space-track/58214_quiet.csv", "file_path": "files/space-track/58214_quiet.csv", "dataset_id": "kramabench-astronomy-easy-6", "s3_uri": "s3://sana-kramabench/datagov/kramabench-astronomy-easy-6/files/space-track/58214_quiet.csv", "size": 5115, "status": "downloaded"}], "download_count": 2, "sandbox_dir": "/home/ec2-user/eval_eqa/exploratory-qa-eval/.sandbox_isolated/task_1591548_1778972826149", "path_map": {"s3://sana-kramabench/datagov/kramabench-astronomy-easy-6/files/space-track/58214_storm.csv": "/home/ec2-user/eval_eqa/exploratory-qa-eval/.sandbox_isolated/task_1591548_1778972826149/kramabench-astronomy-easy-6/files/space-track/58214_storm.csv", "kramabench-astronomy-easy-6/files/space-track/58214_storm.csv": "/home/ec2-user/eval_eqa/exploratory-qa-eval/.sandbox_isolated/task_1591548_1778972826149/kramabench-astronomy-easy-6/files/space-track/58214_storm.csv", "kramabench-astronomy-easy-6:files/space-track/58214_storm.csv": "/home/ec2-user/eval_eqa/exploratory-qa-eval/.sandbox_isolated/task_1591548_1778972826149/kramabench-astronomy-easy-6/files/space-track/58214_storm.csv", "s3://sana-kramabench/datagov/kramabench-astronomy-easy-6/files/space-track/58214_quiet.csv": "/home/ec2-user/eval_eqa/exploratory-qa-eval/.sandbox_isolated/task_1591548_1778972826149/kramabench-astronomy-easy-6/files/space-track/58214_quiet.csv", "kramabench-astronomy-easy-6/files/space-track/58214_quiet.csv": "/home/ec2-user/eval_eqa/expl...
2026-05-16 23:07:26 | INFO | strands_evaluation.instrumentation.agent_plugins | 
--- Turn 5 (elapsed: 20.3s) ---
2026-05-16 23:07:30 | DEBUG | strands_evaluation.instrumentation.agent_plugins | Model response #5 [stop_reason=tool_use]
2026-05-16 23:07:30 | DEBUG | strands_evaluation.instrumentation.agent_plugins | Model response #5 [role=assistant block=1 tool_use] execute_code({"code": "import pandas as pd, numpy as np\nfrom datetime import datetime\n\nmu = 398600.4418  # km^3/s^2\n\nquiet_path = [p for p in DOWNLOAD_PATHS.values() if p.endswith('58214_quiet.csv')][0]\nstorm_path = [p for p in DOWNLOAD_PATHS.values() if p.endswith('58214_storm.csv')][0]\n\ndef load_and_compute(path):\n    df = pd.read_csv(path)\n    # epoch column is the TLE epoch; parse as UTC\n    df['EPOCH_DT'] = pd.to_datetime(df['EPOCH'], utc=True, errors='coerce')\n    # semi-major axis: use provided SEMIMAJOR_AXIS if present; otherwise compute from mean motion\n    if 'SEMIMAJOR_AXIS' in df.columns and df['SEMIMAJOR_AXIS'].notna().any():\n        df['a_km'] = pd.to_numeric(df['SEMIMAJOR_AXIS'], errors='coerce')\n    else:\n        n = pd.to_numeric(df['MEAN_MOTION'], errors='coerce')  # rev/day\n        n_rad_s = n * 2*np.pi / 86400.0\n        df['a_km'] = (mu/(n_rad_s**2))**(1/3)\n    df = df.dropna(subset=['EPOCH_DT','a_km']).sort_values('EPOCH_DT')\n    # convert time to days relative\n    t_days = (df['EPOCH_DT'] - df['EPOCH_DT'].iloc[0]).dt.total_seconds()/86400.0\n    df['t_days'] = t_days\n    return df\n\nquiet = load_and_compute(quiet_path)\nstorm = load_and_compute(storm_path)\n\n# Fit a vs time line (a = c + m t); slope m is km/day\n\ndef slope_km_day(df):\n    x = df['t_days'].to_numpy()\n    y = df['a_km'].to_numpy()\n    # linear regression\n    m = np.polyfit(x, y, 1)[0]\n    return m\n\nquiet_rate = slope_km_day(quiet)\nstorm_rate = slope_km_day(storm)\n\nprint(quiet_rate)\nprint(storm_rate)\n"}) [toolUseId=call_uVnWyKknR1pNMwMhcPVjXNXg]
2026-05-16 23:07:30 | INFO | strands_evaluation.instrumentation.agent_plugins | Executing: execute_code({"code": "import pandas as pd, numpy as np\nfrom datetime import datetime\n\nmu = 398600.4418  # km^3/s^2\n\nquiet_path = [p for p in DOWNLOAD_PATHS.values() if p.endswith('58214_quiet.csv')][0]\nstorm_path = [p for p in DOWNLOAD_PATHS.values() if p.endswith('58214_storm.csv')][0]\n\ndef load_and_compute(path):\n    df = pd.read_csv(path)\n    # epoch column is the TLE epoch; parse as UTC\n    df['EPOCH_DT'] = pd.to_datetime(df['EPOCH'], utc=True, errors='coerce')\n    # semi-major axis: use provided SEMIMAJOR_AXIS if present; otherwise compute from mean motion\n    if 'SEMIMAJOR_AXIS' in df.columns and df['SEMIMAJOR_AXIS'].notna().any():\n        df['a_km'] = pd.to_numeric(df['SEMIMAJOR_AXIS'], errors='coerce')\n    else:\n        n = pd.to_numeric(df['MEAN_MOTION'], errors='coerce')  # rev/day\n        n_rad_s = n * 2*np.pi / 86400.0\n        df['a_km'] = (mu/(n_rad_s**2))**(1/3)\n    df = df.dropna(subset=['EPOCH_DT','a_km']).sort_values('EPOCH_DT')\n    # convert time to days relative\n    t_days = (df['EPOCH_DT'] - df['EPOCH_DT'].iloc[0]).dt.total_seconds()/86400.0\n    df['t_days'] = t_days\n    return df\n\nquiet = load_and_compute(quiet_path)\nstorm = load_and_compute(storm_path)\n\n# Fit a vs time line (a = c + m t); slope m is km/day\n\ndef slope_km_day(df):\n    x = df['t_days'].to_numpy()\n    y = df['a_km'].to_numpy()\n    # linear regression\n    m = np.polyfit(x, y, 1)[0]\n    return m\n\nquiet_rate = slope_km_day(quiet)\nstorm_rate = slope_km_day(storm)\n\nprint(quiet_rate)\nprint(storm_rate)\n"})
2026-05-16 23:07:42 | DEBUG | strands_evaluation.instrumentation.agent_plugins | Tool result: {"output": "0.0068932194067480934\n0.05427430818351742\n", "success": true, "sandbox_dir": "/home/ec2-user/eval_eqa/exploratory-qa-eval/.sandbox_isolated/task_1591548_1778972826149", "sandbox_files": [".download_manifest.json", "kramabench-astronomy-easy-6/files/space-track/58214_storm.csv", "kramabench-astronomy-easy-6/files/space-track/58214_quiet.csv"], "datasets_in_sandbox": [".download_manifest.json", "kramabench-astronomy-easy-6"]}
2026-05-16 23:07:42 | INFO | strands_evaluation.instrumentation.agent_plugins | 
--- Turn 6 (elapsed: 36.3s) ---
2026-05-16 23:07:43 | DEBUG | strands_evaluation.instrumentation.agent_plugins | Model response #6 [stop_reason=tool_use]
